ALOS-4 (DAICHI-4)       
1 60182U 24123A   24234.59816626  .00005444  00000+0  73534-3 0  9998
2 60182  97.9220 330.3208 0001561  99.0399 261.0989 14.79469762  7613
